{"_id":100,"Name":"JOCKSPORTS","Address":"345 VIEWRIDGE","City":"BELMONT","St":"CA","Zipcode":"96711","Area":415,"Phone":"598-6609","Employee":7844,"Credit":5000.0,"Comments":"Very friendly people to work with -- sales rep likes to be called Mike."}
{"_id":101,"Name":"TKB SPORT SHOP","Address":"490 BOLI RD.","City":"REDWOOD city","St":"CA","Zipcode":"94061","Area":415,"Phone":"368-1223","Employee":7521,"Credit":10000.0,"Comments":"Rep called 5/8 about change in order - contact shipping."}
{"_id":102,"Name":"VOLLYRITE","Address":"9722 HAMILTON","City":"BURLINGAME","St":"CA","Zipcode":"95133","Area":415,"Phone":"644-3341","Employee":7654,"Credit":7000.0,"Comments":"Company doing heavy promotion beginning 10/89. Prepare for large orders during winter."}
{"_id":103,"Name":"JUST TENNIS","Address":"HILLVIEW MALL","City":"BURLINGAME","St":"CA","Zipcode":"97544","Area":415,"Phone":"677-9312","Employee":7521,"Credit":3000.0,"Comments":"Contact rep about new line of tennis rackets."}
{"_id":104,"Name":"EVERY MOUNTAIN","Address":"574 SURRY RD.","City":"CUPERTINO","St":"CA","Zipcode":"93301","Area":408,"Phone":"996-2323","Employee":7499,"Credit":10000.0,"Comments":"clients with high market share (23%) due to aggressive advertising."}
{"_id":105,"Name":"K + T SPORTS","Address":"3476 EL PASEO","City":"SANTA CLARA","St":"CA","Zipcode":"91003","Area":408,"Phone":"376-9966","Employee":7844,"Credit":5000.0,"Comments":"Tends to order large amounts of merchandise at once. Accounting is considering raising their credit limit. Usually pays on time."}
{"_id":106,"Name":"SHAPE UP","Address":"908 SEQUOIA","City":"PALO ALTO","St":"CA","Zipcode":"94301","Area":415,"Phone":"364-9777","Employee":7521,"Credit":6000.0,"Comments":"Support intensive. Orders small amounts (< 800) of merchandise at a time."}
{"_id":107,"Name":"WOMEN SPORTS","Address":"VALCO VILLAGE","City":"SUNNYVALE","St":"CA","Zipcode":"93301","Area":408,"Phone":"967-4398","Employee":7499,"Credit":10000.0,"Comments":"First sporting goods store geared exclusively towards women. Unusual promotion al style and very willing to take chances towards new PRODUCTEs!"}
{"_id":108,"Name":"NORTH WOODS HEALTH AND FITNESS SUPPLY CENTER","Address":"98 LONE PINE WAY","City":"HIBBING","St":"MN","Zipcode":"55649","Area":612,"Phone":"566-9123","Employee":7844,"Credit":8000.0,"Comments":""}
{"_id":109,"Name":"SPRINGFIELD NUCLEAR POWER PLANT","Address":"13 PERCEBE STR.","City":"SPRINGFIELD","St":"NT","Zipcode":"0000","Area":636,"Phone":"999-6666","Employee":7934,"Credit":10000.0,"Comments":""}
